OBJECT_NAME,OBJECT_ID,EPOCH,MEAN_MOTION,ECCENTRICITY,INCLINATION,RA_OF_ASC_NODE,ARG_OF_PERICENTER,MEAN_ANOMALY,EPHEMERIS_TYPE,CLASSIFICATION_TYPE,NORAD_CAT_ID,ELEMENT_SET_NO,REV_AT_EPOCH,BSTAR,MEAN_MOTION_DOT,MEAN_MOTION_DDOT
LKW-2,2017-084A,2026-07-01T04:31:16.269600,15.26520536,.0002596,97.1181,221.3308,146.7958,213.3444,0,U,43080,999,47382,.27815E-3,.7197E-4,0
SUPERVIEW-1 03,2018-002A,2026-07-01T03:22:28.790400,15.39755577,.0047487,97.3138,266.9599,130.2789,230.2624,0,U,43099,999,47051,.53601E-3,.22019E-3,0
CARTOSAT-2F,2018-004A,2026-07-01T04:07:10.619616,15.19174110,.0001569,97.4783,241.6695,167.6032,192.5241,0,U,43111,999,46945,.24654E-3,.5117E-4,0
LKW-3,2018-006A,2026-07-01T04:42:42.729696,15.35499667,.0001888,97.6619,343.3197,239.5353,120.5704,0,U,43146,999,47086,.21159E-3,.7214E-4,0
ASNARO-2,2018-007A,2026-06-30T18:59:57.181920,15.22425156,.00015667,97.3968,188.5061,90.6962,269.4454,0,U,43152,999,46948,.12683708E-3,.2862E-4,0
JILIN-1 07,2018-008E,2026-07-01T04:12:28.763424,15.34956270,.0008454,97.1760,201.7320,21.5778,338.5821,0,U,43159,999,46714,.33305E-3,.11232E-3,0
JILIN-1 08,2018-008F,2026-07-01T04:26:31.934112,15.33870084,.0007024,97.1795,201.0428,40.5677,319.6088,0,U,43160,999,46709,.22371E-3,.7258E-4,0
S-NET D,2018-014G,2026-06-30T23:40:20.157024,15.16801058,.0007401,97.5354,86.6912,343.7768,16.3227,0,U,43186,999,46085,.27685E-3,.5375E-4,0
S-NET B,2018-014H,2026-07-01T04:42:12.818880,15.16774620,.0007818,97.5358,86.8865,337.0756,23.0127,0,U,43187,999,46088,.31096E-3,.6042E-4,0
S-NET A,2018-014J,2026-06-30T23:38:36.623040,15.16809248,.000777,97.5370,86.8886,338.8318,21.2592,0,U,43188,999,46085,.27405E-3,.5322E-4,0
S-NET C,2018-014K,2026-07-01T00:02:54.053664,15.16763133,.0008907,97.5387,86.9820,328.8023,31.2680,0,U,43189,999,45940,.29337E-3,.5696E-4,0
PAZ,2018-020A,2026-07-01T04:52:04.107648,15.19152420,.0001725,97.4448,189.3891,88.2244,271.9188,0,U,43215,999,46313,.9445E-4,.1917E-4,0
GOES 17,2018-022A,2026-07-01T03:28:38.901216,1.00272167,.0000746,0.9707,85.4897,35.5302,120.8479,0,U,43226,999,3056,0,-.173E-5,0
LKW-4,2018-025A,2026-07-01T00:54:32.762880,15.63390242,.00026,97.6343,354.0071,230.2417,129.8612,0,U,43236,999,46219,.5843E-3,.53926E-3,0
ZHUHAI-1 OVS-02,2018-040B,2026-07-01T04:57:43.675200,15.25209603,.0003489,97.0377,198.6056,172.7214,187.4076,0,U,43440,999,45485,.34331E-3,.8558E-4,0
ZHUHAI-1 OHS-02,2018-040C,2026-07-01T04:24:51.170976,15.26082842,.0009842,97.0359,205.5377,168.8224,191.3236,0,U,43441,999,11641,.34241E-3,.8773E-4,0
GAOFEN-6,2018-048A,2026-07-01T04:00:45.110592,14.76365938,.0011865,98.0969,244.8350,121.2507,238.9866,0,U,43484,999,43545,-.31593E-4,-.272E-5,0
LUOJIA-1 01,2018-048B,2026-07-01T04:01:40.765152,14.87333896,.0010402,97.8106,260.1306,78.2230,282.0152,0,U,43485,999,43629,.20309E-3,.1781E-4,0
PAKTES 1A,2018-056A,2026-07-01T03:43:09.624864,14.99150722,.0020795,98.1280,339.2368,63.0045,297.3296,0,U,43529,999,43401,.11381E-3,.1324E-4,0
PRSS-1,2018-056B,2026-07-01T03:59:05.854272,14.82010547,.000144,97.7821,249.6484,77.9326,282.2048,0,U,43530,999,43050,.11842E-3,.889E-5,0
HAIYANG-1C,2018-068A,2026-07-01T04:45:31.048992,14.34182277,.0011907,98.5193,254.3035,57.1297,303.1033,0,U,43609,999,40909,-.26976E-4,-.119E-5,0
SSTL S1-4,2018-071A,2026-07-01T03:11:14.731296,14.96189894,.0002282,97.5016,53.1663,103.4213,256.7263,0,U,43618,999,42502,.1622E-3,.1773E-4,0
HAIYANG-2B,2018-081A,2026-07-01T03:54:41.361408,13.79307731,.0000273,99.3279,190.7081,165.9467,194.1693,0,U,43655,999,38685,-.10812E-3,-.155E-5,0
CZ-4B R/B,2018-081B,2026-06-30T17:47:45.732192,14.31869326,.02039563,99.3670,100.7478,227.5557,130.8221,0,U,43656,999,40124,.42328465E-4,.83E-6,0
CFOSAT,2018-083A,2026-07-01T03:34:39.121824,15.16460526,.0002227,97.3602,186.2685,82.0686,278.0800,0,U,43662,999,42455,.1986E-3,.3799E-4,0
TEN-KOH,2018-084G,2026-07-01T02:30:48.945024,15.02986936,.0010737,98.0738,15.0541,73.8216,286.4189,0,U,43677,999,41825,.1584E-3,.2066E-4,0
DIWATA-2B,2018-084H,2026-07-01T04:10:37.110432,15.00511217,.0013104,98.1199,18.9928,126.7639,233.4789,0,U,43678,999,41831,.15585E-3,.1901E-4,0
STARS-AO,2018-084J,2026-06-29T12:56:32.231616,15.17184998,.00035371,98.0486,35.2722,111.8437,248.3171,0,U,43679,999,41934,.30179989E-3,.5921E-4,0
AUTCUBE 2,2018-084K,2026-06-29T19:40:41.081088,15.10172460,.00090315,98.0694,27.6642,10.7512,349.3908,0,U,43681,999,41883,.18663384E-3,.2977E-4,0
METOP-C,2018-087A,2026-07-01T01:48:10.628928,14.21515869,.0002126,98.6638,241.4245,111.8337,248.3067,0,U,43689,999,39680,.756E-4,.122E-5,0
ES'HAIL 2,2018-090A,2026-07-01T03:53:09.507840,1.00272551,.0002235,0.0185,21.3458,112.4565,229.4901,0,U,43700,999,2781,0,.155E-5,0
MOHAMMED VI-B,2018-095A,2026-07-01T04:47:09.269376,14.77064183,.000159,97.9560,254.3315,98.2405,261.8985,0,U,43717,999,41025,.26881E-4,.139E-5,0
HYSIS,2018-096A,2026-07-01T03:38:28.708224,14.78644679,.0001841,97.9840,248.7896,90.8041,269.3381,0,U,43719,999,40948,.16227E-3,.1137E-4,0
COSMOS 2530 (RODNIK-S 16),2018-097A,2026-07-01T05:20:04.522848,12.42881550,.0019619,82.5123,213.5704,9.6977,350.4477,0,U,43751,999,34403,-.3976E-5,.9E-7,0
COSMOS 2531 (RODNIK-S 17),2018-097B,2026-07-01T03:55:44.476608,12.42913051,.0017225,82.5169,214.6699,29.1617,331.0421,0,U,43752,999,34404,.47318E-3,.76E-6,0
COSMOS 2532 (RODNIK-S 18),2018-097C,2026-07-01T04:36:29.962944,12.42910104,.0018652,82.5113,213.4319,30.8824,329.3349,0,U,43753,999,34401,-.14752E-3,-.1E-6,0
MINXSS-2,2018-099A,2026-07-01T03:00:00.267840,15.47858420,.0007832,97.4533,258.8260,204.1110,155.9774,0,U,43758,999,41628,.98672E-3,.5154E-3,0
SIRION PATHFINDER-2,2018-099B,2026-07-01T02:55:09.731424,15.14668888,.0007224,97.4243,230.8482,245.5732,114.4747,0,U,43759,999,41473,.27348E-3,.4997E-4,0
AISTECHSAT 2,2018-099L,2026-07-01T02:04:37.627968,15.15587490,.0003312,97.4282,229.8167,236.8401,123.2514,0,U,43768,999,41438,.38291E-3,.7206E-4,0
FOX-1CLIFF (AO-95),2018-099N,2026-07-01T02:27:36.211680,15.27003797,.0006963,97.4379,242.2993,301.1216,58.9339,0,U,43770,999,41534,.57079E-3,.15079E-3,0
2018-099Q,2018-099Q,2026-06-30T21:23:46.639392,16.24903702,.0016106,97.3956,264.9676,265.2289,94.7163,0,U,43772,999,41686,.15478E-2,.4432105E-1,.24623E-5
RANGE-A,2018-099R,2026-07-01T04:40:22.993248,15.13506670,.0008654,97.3955,224.3642,302.9293,57.1106,0,U,43773,999,41461,.33864E-3,.6005E-4,0
SNUSAT-2,2018-099AA,2026-07-01T01:47:27.642336,15.22046591,.0008907,97.4050,235.2457,240.7965,119.2380,0,U,43782,999,41514,.45275E-3,.10298E-3,0
SNUGLITE,2018-099AC,2026-07-01T02:22:05.463840,15.27480113,.0002157,97.3859,236.2434,203.6192,156.4948,0,U,43784,999,41544,.60197E-3,.16132E-3,0
ITASAT,2018-099AE,2026-07-01T02:49:22.032768,15.19228936,.0010924,97.4019,233.3521,307.5729,52.4513,0,U,43786,999,41502,.38456E-3,.8047E-4,0
EAGLET-I,2018-099AJ,2026-07-01T01:46:10.202016,15.13043275,.0009556,97.4222,231.3746,301.2687,58.7608,0,U,43790,999,41443,.29286E-3,.5118E-4,0
ESEO,2018-099AL,2026-07-01T01:59:19.303584,15.04288628,.0010135,97.3965,218.8766,289.3176,70.6955,0,U,43792,999,41389,.88285E-4,.1172E-4,0
THEA,2018-099AQ,2026-07-01T03:36:34.037280,15.35488334,.0006729,97.4440,251.9817,224.2502,135.8204,0,U,43796,999,41483,.7104E-3,.24482E-3,0
ASTROCAST 0.1,2018-099AS,2026-07-01T00:17:55.620384,15.50486935,.0005699,97.4378,260.9484,165.0619,195.0802,0,U,43798,999,41657,.80756E-3,.46172E-3,0
JY1SAT (JO-97),2018-099AX,2026-07-01T02:55:20.699040,15.34098627,.0005495,97.4125,245.0076,204.3535,155.7449,0,U,43803,999,41576,.69875E-3,.2303E-3,0
SUOMI-100,2018-099AY,2026-07-01T03:35:48.932160,15.28737337,.0009119,97.4177,242.4933,222.1544,137.8995,0,U,43804,999,41555,.56635E-3,.15782E-3,0
CENTAURI-1,2018-099BD,2026-07-01T03:06:01.635840,15.16502700,.0012368,97.4212,233.5498,279.9087,80.0750,0,U,43809,999,41461,.32108E-3,.6201E-4,0
GLOBAL-2,2018-099BG,2026-07-01T01:39:36.338112,15.08752564,.0007602,97.3544,218.0052,104.8137,255.3935,0,U,43812,999,41400,.21974E-3,.3392E-4,0
SEAHAWK-1,2018-099BQ,2026-07-01T03:09:32.219424,15.23032893,.000665,97.3949,234.4057,254.3912,105.6591,0,U,43820,999,41465,.47278E-3,.11071E-3,0
SAUDISAT 5A,2018-102A,2026-07-01T04:16:23.727360,15.28192222,.0011256,97.3060,243.4899,86.9147,273.3380,0,U,43831,999,41781,.23923E-3,.6511E-4,0
SAUDISAT 5B,2018-102C,2026-07-01T04:40:11.563392,15.28441830,.0011994,97.3170,246.6012,88.5215,271.7399,0,U,43833,999,41793,.22766E-3,.6242E-4,0
2018-102D,2018-102D,2026-07-01T04:33:44.200224,15.69388005,.0001368,97.3439,271.9949,350.6763,9.4473,0,U,43834,999,41944,.81271E-3,.95896E-3,0
ISAT,2018-111D,2026-07-01T02:06:08.233920,15.67925809,.0004779,97.5866,118.4037,160.6791,199.4651,0,U,43879,999,41334,.11988E-2,.133997E-2,0
UWE-4,2018-111E,2026-07-01T01:28:37.633152,15.46980202,.0004337,97.5854,111.0998,264.5521,95.5233,0,U,43880,999,41292,.77187E-3,.38998E-3,0
D-STAR ONE (SPARROW),2018-111F,2026-07-01T02:16:32.162016,15.79041081,.0005548,97.6106,124.3017,139.7348,220.4330,0,U,43881,999,41356,.12984E-2,.235899E-2,0
JILIN-1 09,2019-005B,2026-07-01T04:43:29.502336,15.20636041,.0003345,97.4748,277.0405,66.5833,293.5754,0,U,43943,999,41127,.26984E-3,.5852E-4,0
JILIN-1 10,2019-005E,2026-07-01T03:51:59.225760,15.25871232,.00072,97.4799,280.9665,220.2158,139.8548,0,U,43946,999,41144,.28718E-3,.7287E-4,0
EGYPTSAT-A (MISRSAT-A),2019-008A,2026-07-01T03:26:17.086848,14.72322388,.0001555,98.0194,246.7170,99.8741,260.2642,0,U,44047,999,39529,.83723E-4,.48E-5,0
EMISAT,2019-018A,2026-07-01T03:28:19.284960,14.43643059,.0018471,98.4644,240.8681,172.2511,187.8968,0,U,44078,999,38207,.17779E-4,.16E-6,0
JILIN-1 GAOFEN 3A,2019-032C,2026-07-01T03:53:49.014240,15.32933785,.0005542,44.9747,280.0071,9.2206,350.8780,0,U,44312,999,38998,.417E-3,.13243E-3,0
WT 1B,2019-032G,2026-06-30T22:26:01.466016,15.27448680,.0009788,44.9715,345.8867,317.5253,42.4872,0,U,44316,999,38918,.35183E-3,.9355E-4,0
PROX-1,2019-036A,2026-06-30T20:18:03.383136,14.90945804,.0005385,23.9962,22.9900,193.9081,166.1271,0,U,44339,999,37551,.15567E-2,.16053E-3,0
